SL-16 R/B               
1 22566U 93016B   26039.09545566 -.00000135  00000+0 -44582-4 0  9997
2 22566  71.0069 277.3416 0010267 354.5204   5.5804 14.15303838697982
COSMOS 2242             
1 22626U 93024A   26039.14849967  .00002138  00000+0  18576-3 0  9997
2 22626  82.5190 294.9713 0017658  48.1851 312.0876 14.96425877775979
SL-16 R/B               
1 22803U 93059B   26039.18565380  .00000163  00000+0  10436-3 0  9993
2 22803  70.9892  73.3474 0019496 257.0474 102.8473 14.17227348675358
ARIANE 40 R/B           
1 22830U 93061H   26039.16012432  .00000236  00000+0  10228-3 0  9999
2 22830  98.4979 108.6212 0010860  17.7831 342.3731 14.32845109689873
COSMOS 2278             
1 23087U 94023A   26038.96432105 -.00000160  00000+0 -59057-4 0  9995
2 23087  71.0501 237.2881 0006585  69.6924 290.4905 14.14363818640601
SL-16 R/B               
1 23088U 94023B   26038.67082333  .00000012  00000+0  30810-4 0  9998
2 23088  70.9998 133.9321 0004462 313.2838  46.7911 14.15003517641849
SL-16 R/B               
1 23343U 94074B   26039.10134175  .00000595  00000+0  86437-4 0  9991
2 23343  97.7148  71.1123 0005701 329.1234  94.6292 14.79372129682873
SL-16 R/B               
1 23405U 94077B   26039.08814595  .00000082  00000+0  66552-4 0  9998
2 23405  70.9814  54.7649 0004319 236.6738 123.3971 14.15556994612040
ARIANE 40+ R/B          
1 23561U 95021B   26039.13594799  .00000354  00000+0  12695-3 0  9998
2 23561  98.4559 111.0100 0006039 223.0666 166.9328 14.39750334614999
SL-16 R/B               
1 23705U 95058B   26039.02301382  .00000305  00000+0  18029-3 0  9993
2 23705  71.0189 242.5393 0012293 174.6585 185.4671 14.15492075563651
SL-16 R/B               
1 24298U 96051B   26038.99606272  .00000079  00000+0  69614-4 0  9991
2 24298  70.7565 238.0900 0017583 189.5775 170.5012 14.12407097517458
ORBVIEW 2 (SEASTAR)     
1 24883U 97037A   26039.07307260  .00000394  00000+0  15327-3 0  9992
2 24883  98.8514 202.6089 0002905 132.2273 227.9158 14.35471578504227
