CCSDS_OMM_VERS = 2.0
CREATION_DATE  = 
ORIGINATOR     = 

OBJECT_NAME    = SL-16 R/B
OBJECT_ID      = 1993-016B
CENTER_NAME    = EARTH
REF_FRAME      = TEME
TIME_SYSTEM    = UTC
MEAN_ELEMENT_THEORY = SGP/SGP4

EPOCH          = 2026-02-08T02:17:27.369024
MEAN_MOTION    = 14.15303838
ECCENTRICITY   = .0010267
INCLINATION    = 71.0069
RA_OF_ASC_NODE = 277.3416
ARG_OF_PERICENTER = 354.5204
MEAN_ANOMALY   = 5.5804

EPHEMERIS_TYPE = 0
CLASSIFICATION_TYPE = U
NORAD_CAT_ID   = 22566
ELEMENT_SET_NO = 999
REV_AT_EPOCH   = 69798
BSTAR          = -.44582E-4
MEAN_MOTION_DOT = -.135E-5
MEAN_MOTION_DDOT = 0

CCSDS_OMM_VERS = 2.0
CREATION_DATE  = 
ORIGINATOR     = 

OBJECT_NAME    = COSMOS 2242
OBJECT_ID      = 1993-024A
CENTER_NAME    = EARTH
REF_FRAME      = TEME
TIME_SYSTEM    = UTC
MEAN_ELEMENT_THEORY = SGP/SGP4

EPOCH          = 2026-02-08T03:33:50.371488
MEAN_MOTION    = 14.96425877
ECCENTRICITY   = .0017658
INCLINATION    = 82.5190
RA_OF_ASC_NODE = 294.9713
ARG_OF_PERICENTER = 48.1851
MEAN_ANOMALY   = 312.0876

EPHEMERIS_TYPE = 0
CLASSIFICATION_TYPE = U
NORAD_CAT_ID   = 22626
ELEMENT_SET_NO = 999
REV_AT_EPOCH   = 77597
BSTAR          = .18576E-3
MEAN_MOTION_DOT = .2138E-4
MEAN_MOTION_DDOT = 0

CCSDS_OMM_VERS = 2.0
CREATION_DATE  = 
ORIGINATOR     = 

OBJECT_NAME    = SL-16 R/B
OBJECT_ID      = 1993-059B
CENTER_NAME    = EARTH
REF_FRAME      = TEME
TIME_SYSTEM    = UTC
MEAN_ELEMENT_THEORY = SGP/SGP4

EPOCH          = 2026-02-08T04:27:20.488320
MEAN_MOTION    = 14.17227348
ECCENTRICITY   = .0019496
INCLINATION    = 70.9892
RA_OF_ASC_NODE = 73.3474
ARG_OF_PERICENTER = 257.0474
MEAN_ANOMALY   = 102.8473

EPHEMERIS_TYPE = 0
CLASSIFICATION_TYPE = U
NORAD_CAT_ID   = 22803
ELEMENT_SET_NO = 999
REV_AT_EPOCH   = 67535
BSTAR          = .10436E-3
MEAN_MOTION_DOT = .163E-5
MEAN_MOTION_DDOT = 0

CCSDS_OMM_VERS = 2.0
CREATION_DATE  = 
ORIGINATOR     = 

OBJECT_NAME    = ARIANE 40 R/B
OBJECT_ID      = 1993-061H
CENTER_NAME    = EARTH
REF_FRAME      = TEME
TIME_SYSTEM    = UTC
MEAN_ELEMENT_THEORY = SGP/SGP4

EPOCH          = 2026-02-08T03:50:34.741248
MEAN_MOTION    = 14.32845109
ECCENTRICITY   = .001086
INCLINATION    = 98.4979
RA_OF_ASC_NODE = 108.6212
ARG_OF_PERICENTER = 17.7831
MEAN_ANOMALY   = 342.3731

EPHEMERIS_TYPE = 0
CLASSIFICATION_TYPE = U
NORAD_CAT_ID   = 22830
ELEMENT_SET_NO = 999
REV_AT_EPOCH   = 68987
BSTAR          = .10228E-3
MEAN_MOTION_DOT = .236E-5
MEAN_MOTION_DDOT = 0

CCSDS_OMM_VERS = 2.0
CREATION_DATE  = 
ORIGINATOR     = 

OBJECT_NAME    = COSMOS 2278
OBJECT_ID      = 1994-023A
CENTER_NAME    = EARTH
REF_FRAME      = TEME
TIME_SYSTEM    = UTC
MEAN_ELEMENT_THEORY = SGP/SGP4

EPOCH          = 2026-02-07T23:08:37.338720
MEAN_MOTION    = 14.14363818
ECCENTRICITY   = .0006585
INCLINATION    = 71.0501
RA_OF_ASC_NODE = 237.2881
ARG_OF_PERICENTER = 69.6924
MEAN_ANOMALY   = 290.4905

EPHEMERIS_TYPE = 0
CLASSIFICATION_TYPE = U
NORAD_CAT_ID   = 23087
ELEMENT_SET_NO = 999
REV_AT_EPOCH   = 64060
BSTAR          = -.59057E-4
MEAN_MOTION_DOT = -.16E-5
MEAN_MOTION_DDOT = 0

CCSDS_OMM_VERS = 2.0
CREATION_DATE  = 
ORIGINATOR     = 

OBJECT_NAME    = SL-16 R/B
OBJECT_ID      = 1994-023B
CENTER_NAME    = EARTH
REF_FRAME      = TEME
TIME_SYSTEM    = UTC
MEAN_ELEMENT_THEORY = SGP/SGP4

EPOCH          = 2026-02-07T16:05:59.135712
MEAN_MOTION    = 14.15003517
ECCENTRICITY   = .0004462
INCLINATION    = 70.9998
RA_OF_ASC_NODE = 133.9321
ARG_OF_PERICENTER = 313.2838
MEAN_ANOMALY   = 46.7911

EPHEMERIS_TYPE = 0
CLASSIFICATION_TYPE = U
NORAD_CAT_ID   = 23088
ELEMENT_SET_NO = 999
REV_AT_EPOCH   = 64184
BSTAR          = .30809588E-4
MEAN_MOTION_DOT = .12E-6
MEAN_MOTION_DDOT = 0

CCSDS_OMM_VERS = 2.0
CREATION_DATE  = 
ORIGINATOR     = 

OBJECT_NAME    = SL-16 R/B
OBJECT_ID      = 1994-074B
CENTER_NAME    = EARTH
REF_FRAME      = TEME
TIME_SYSTEM    = UTC
MEAN_ELEMENT_THEORY = SGP/SGP4

EPOCH          = 2026-02-08T02:25:55.927200
MEAN_MOTION    = 14.79372129
ECCENTRICITY   = .0005701
INCLINATION    = 97.7148
RA_OF_ASC_NODE = 71.1123
ARG_OF_PERICENTER = 329.1234
MEAN_ANOMALY   = 94.6292

EPHEMERIS_TYPE = 0
CLASSIFICATION_TYPE = U
NORAD_CAT_ID   = 23343
ELEMENT_SET_NO = 999
REV_AT_EPOCH   = 68287
BSTAR          = .86437E-4
MEAN_MOTION_DOT = .595E-5
MEAN_MOTION_DDOT = 0

CCSDS_OMM_VERS = 2.0
CREATION_DATE  = 
ORIGINATOR     = 

OBJECT_NAME    = SL-16 R/B
OBJECT_ID      = 1994-077B
CENTER_NAME    = EARTH
REF_FRAME      = TEME
TIME_SYSTEM    = UTC
MEAN_ELEMENT_THEORY = SGP/SGP4

EPOCH          = 2026-02-08T02:06:55.810080
MEAN_MOTION    = 14.15556994
ECCENTRICITY   = .0004319
INCLINATION    = 70.9814
RA_OF_ASC_NODE = 54.7649
ARG_OF_PERICENTER = 236.6738
MEAN_ANOMALY   = 123.3971

EPHEMERIS_TYPE = 0
CLASSIFICATION_TYPE = U
NORAD_CAT_ID   = 23405
ELEMENT_SET_NO = 999
REV_AT_EPOCH   = 61204
BSTAR          = .66552E-4
MEAN_MOTION_DOT = .82E-6
MEAN_MOTION_DDOT = 0

CCSDS_OMM_VERS = 2.0
CREATION_DATE  = 
ORIGINATOR     = 

OBJECT_NAME    = ARIANE 40+ R/B
OBJECT_ID      = 1995-021B
CENTER_NAME    = EARTH
REF_FRAME      = TEME
TIME_SYSTEM    = UTC
MEAN_ELEMENT_THEORY = SGP/SGP4

EPOCH          = 2026-02-08T03:15:45.906336
MEAN_MOTION    = 14.39750334
ECCENTRICITY   = .0006039
INCLINATION    = 98.4559
RA_OF_ASC_NODE = 111.0100
ARG_OF_PERICENTER = 223.0666
MEAN_ANOMALY   = 166.9328

EPHEMERIS_TYPE = 0
CLASSIFICATION_TYPE = U
NORAD_CAT_ID   = 23561
ELEMENT_SET_NO = 999
REV_AT_EPOCH   = 61499
BSTAR          = .12695E-3
MEAN_MOTION_DOT = .354E-5
MEAN_MOTION_DDOT = 0

CCSDS_OMM_VERS = 2.0
CREATION_DATE  = 
ORIGINATOR     = 

OBJECT_NAME    = SL-16 R/B
OBJECT_ID      = 1995-058B
CENTER_NAME    = EARTH
REF_FRAME      = TEME
TIME_SYSTEM    = UTC
MEAN_ELEMENT_THEORY = SGP/SGP4

EPOCH          = 2026-02-08T00:33:08.394048
MEAN_MOTION    = 14.15492075
ECCENTRICITY   = .0012293
INCLINATION    = 71.0189
RA_OF_ASC_NODE = 242.5393
ARG_OF_PERICENTER = 174.6585
MEAN_ANOMALY   = 185.4671

EPHEMERIS_TYPE = 0
CLASSIFICATION_TYPE = U
NORAD_CAT_ID   = 23705
ELEMENT_SET_NO = 999
REV_AT_EPOCH   = 56365
BSTAR          = .18029E-3
MEAN_MOTION_DOT = .305E-5
MEAN_MOTION_DDOT = 0

CCSDS_OMM_VERS = 2.0
CREATION_DATE  = 
ORIGINATOR     = 

OBJECT_NAME    = SL-16 R/B
OBJECT_ID      = 1996-051B
CENTER_NAME    = EARTH
REF_FRAME      = TEME
TIME_SYSTEM    = UTC
MEAN_ELEMENT_THEORY = SGP/SGP4

EPOCH          = 2026-02-07T23:54:19.819008
MEAN_MOTION    = 14.12407097
ECCENTRICITY   = .0017583
INCLINATION    = 70.7565
RA_OF_ASC_NODE = 238.0900
ARG_OF_PERICENTER = 189.5775
MEAN_ANOMALY   = 170.5012

EPHEMERIS_TYPE = 0
CLASSIFICATION_TYPE = U
NORAD_CAT_ID   = 24298
ELEMENT_SET_NO = 999
REV_AT_EPOCH   = 51745
BSTAR          = .69614E-4
MEAN_MOTION_DOT = .79E-6
MEAN_MOTION_DDOT = 0

CCSDS_OMM_VERS = 2.0
CREATION_DATE  = 
ORIGINATOR     = 

OBJECT_NAME    = ORBVIEW 2 (SEASTAR)
OBJECT_ID      = 1997-037A
CENTER_NAME    = EARTH
REF_FRAME      = TEME
TIME_SYSTEM    = UTC
MEAN_ELEMENT_THEORY = SGP/SGP4

EPOCH          = 2026-02-08T01:45:13.472640
MEAN_MOTION    = 14.35471578
ECCENTRICITY   = .0002905
INCLINATION    = 98.8514
RA_OF_ASC_NODE = 202.6089
ARG_OF_PERICENTER = 132.2273
MEAN_ANOMALY   = 227.9158

EPHEMERIS_TYPE = 0
CLASSIFICATION_TYPE = U
NORAD_CAT_ID   = 24883
ELEMENT_SET_NO = 999
REV_AT_EPOCH   = 50422
BSTAR          = .15327E-3
MEAN_MOTION_DOT = .394E-5
MEAN_MOTION_DDOT = 0

